{
  "type": "FeatureCollection",
  "features": [
    {
      "type": "Feature",
      "properties": {
        "norad_id": 41860,
        "name": "GSAT0212 (GALILEO 16)",
        "group": "galileo",
        "lat": 53.493510076687386,
        "lon": -142.7478340424816,
        "alt_km": 23215.20295132647,
        "timestamp": "2025-12-22T18:58:53.697624+00:00",
        "meta_object_name": "GSAT0212 (GALILEO 16)",
        "meta_object_id": "2016-069B",
        "meta_epoch": "2025-12-20T20:44:32.412192",
        "meta_mean_motion": 1.70474703,
        "meta_eccentricity": 0.00020505,
        "meta_inclination": 55.3843,
        "meta_ra_of_asc_node": 106.0207,
        "meta_arg_of_pericenter": 18.9555,
        "meta_mean_anomaly": 341.0209,
        "meta_ephemeris_type": 0,
        "meta_classification_type": "U",
        "meta_norad_cat_id": 41860,
        "meta_element_set_no": 999,
        "meta_rev_at_epoch": 5661,
        "meta_bstar": 0,
        "meta_mean_motion_dot": 0,
        "meta_mean_motion_ddot": 0,
        "tle_line1": "1 41860U 16069B   25354.86426403  .00000000  00000+0  00000+0 0  9991",
        "tle_line2": "2 41860  55.3843 106.0207 0002050  18.9555 341.0209  1.70474703 56615"
      },
      "geometry": {
        "type": "Point",
        "coordinates": [
          -142.7478340424816,
          53.493510076687386
        ]
      }
    },
    {
      "type": "Feature",
      "properties": {
        "norad_id": 41861,
        "name": "GSAT0213 (GALILEO 17)",
        "group": "galileo",
        "lat": -43.55772182916999,
        "lon": -33.053686100013365,
        "alt_km": 23221.768052104464,
        "timestamp": "2025-12-22T18:58:53.697635+00:00",
        "meta_object_name": "GSAT0213 (GALILEO 17)",
        "meta_object_id": "2016-069C",
        "meta_epoch": "2025-12-17T17:05:43.699776",
        "meta_mean_motion": 1.70474994,
        "meta_eccentricity": 0.000259,
        "meta_inclination": 55.385,
        "meta_ra_of_asc_node": 106.1156,
        "meta_arg_of_pericenter": 282.1972,
        "meta_mean_anomaly": 77.7328,
        "meta_ephemeris_type": 0,
        "meta_classification_type": "U",
        "meta_norad_cat_id": 41861,
        "meta_element_set_no": 999,
        "meta_rev_at_epoch": 5642,
        "meta_bstar": 0,
        "meta_mean_motion_dot": -9e-08,
        "meta_mean_motion_ddot": 0,
        "tle_line1": "1 41861U 16069C   25351.71231134 -.00000009  00000+0  00000+0 0  9998",
        "tle_line2": "2 41861  55.3850 106.1156 0002590 282.1972  77.7328  1.70474994 56421"
      },
      "geometry": {
        "type": "Point",
        "coordinates": [
          -33.053686100013365,
          -43.55772182916999
        ]
      }
    },
    {
      "type": "Feature",
      "properties": {
        "norad_id": 41862,
        "name": "GSAT0214 (GALILEO 18)",
        "group": "galileo",
        "lat": 26.448535823067523,
        "lon": -94.09749143340778,
        "alt_km": 23222.58803229536,
        "timestamp": "2025-12-22T18:58:53.697646+00:00",
        "meta_object_name": "GSAT0214 (GALILEO 18)",
        "meta_object_id": "2016-069D",
        "meta_epoch": "2025-12-21T09:04:04.029024",
        "meta_mean_motion": 1.70474854,
        "meta_eccentricity": 0.00016223,
        "meta_inclination": 55.385,
        "meta_ra_of_asc_node": 106.0069,
        "meta_arg_of_pericenter": 287.8422,
        "meta_mean_anomaly": 72.112,
        "meta_ephemeris_type": 0,
        "meta_classification_type": "U",
        "meta_norad_cat_id": 41862,
        "meta_element_set_no": 999,
        "meta_rev_at_epoch": 5661,
        "meta_bstar": 0,
        "meta_mean_motion_dot": 2e-08,
        "meta_mean_motion_ddot": 0,
        "tle_line1": "1 41862U 16069D   25355.37782441  .00000002  00000+0  00000+0 0  9999",
        "tle_line2": "2 41862  55.3850 106.0069 0001622 287.8422  72.1120  1.70474854 56616"
      },
      "geometry": {
        "type": "Point",
        "coordinates": [
          -94.09749143340778,
          26.448535823067523
        ]
      }
    },
    {
      "type": "Feature",
      "properties": {
        "norad_id": 43055,
        "name": "GSAT0215 (GALILEO 19)",
        "group": "galileo",
        "lat": -21.392507832866468,
        "lon": 62.22609864790653,
        "alt_km": 23227.949913819473,
        "timestamp": "2025-12-22T18:58:53.697658+00:00",
        "meta_object_name": "GSAT0215 (GALILEO 19)",
        "meta_object_id": "2017-079A",
        "meta_epoch": "2025-12-21T06:45:20.639232",
        "meta_mean_motion": 1.70474038,
        "meta_eccentricity": 0.0001214,
        "meta_inclination": 55.1273,
        "meta_ra_of_asc_node": 226.4024,
        "meta_arg_of_pericenter": 349.3948,
        "meta_mean_anomaly": 10.7111,
        "meta_ephemeris_type": 0,
        "meta_classification_type": "U",
        "meta_norad_cat_id": 43055,
        "meta_element_set_no": 999,
        "meta_rev_at_epoch": 4995,
        "meta_bstar": 0,
        "meta_mean_motion_dot": 7.3e-07,
        "meta_mean_motion_ddot": 0,
        "tle_line1": "1 43055U 17079A   25355.28148888  .00000073  00000+0  00000+0 0  9996",
        "tle_line2": "2 43055  55.1273 226.4024 0001214 349.3948  10.7111  1.70474038 49952"
      },
      "geometry": {
        "type": "Point",
        "coordinates": [
          62.22609864790653,
          -21.392507832866468
        ]
      }
    },
    {
      "type": "Feature",
      "properties": {
        "norad_id": 43056,
        "name": "GSAT0216 (GALILEO 20)",
        "group": "galileo",
        "lat": 22.347955495659242,
        "lon": -116.96854989035994,
        "alt_km": 23216.380437810232,
        "timestamp": "2025-12-22T18:58:53.697669+00:00",
        "meta_object_name": "GSAT0216 (GALILEO 20)",
        "meta_object_id": "2017-079B",
        "meta_epoch": "2025-12-19T19:30:44.926272",
        "meta_mean_motion": 1.70474153,
        "meta_eccentricity": 0.00023685,
        "meta_inclination": 55.1281,
        "meta_ra_of_asc_node": 226.4428,
        "meta_arg_of_pericenter": 323.7267,
        "meta_mean_anomaly": 36.3665,
        "meta_ephemeris_type": 0,
        "meta_classification_type": "U",
        "meta_norad_cat_id": 43056,
        "meta_element_set_no": 999,
        "meta_rev_at_epoch": 4994,
        "meta_bstar": 0,
        "meta_mean_motion_dot": 6.9e-07,
        "meta_mean_motion_ddot": 0,
        "tle_line1": "1 43056U 17079B   25353.81301998  .00000069  00000+0  00000+0 0  9992",
        "tle_line2": "2 43056  55.1281 226.4428 0002368 323.7267  36.3665  1.70474153 49946"
      },
      "geometry": {
        "type": "Point",
        "coordinates": [
          -116.96854989035994,
          22.347955495659242
        ]
      }
    },
    {
      "type": "Feature",
      "properties": {
        "norad_id": 43057,
        "name": "GSAT0217 (GALILEO 21)",
        "group": "galileo",
        "lat": -51.330442741156894,
        "lon": 106.97096912853705,
        "alt_km": 23229.130911158747,
        "timestamp": "2025-12-22T18:58:53.697681+00:00",
        "meta_object_name": "GSAT0217 (GALILEO 21)",
        "meta_object_id": "2017-079C",
        "meta_epoch": "2025-12-21T04:57:56.651616",
        "meta_mean_motion": 1.70474014,
        "meta_eccentricity": 0.00027256,
        "meta_inclination": 55.1257,
        "meta_ra_of_asc_node": 226.4024,
        "meta_arg_of_pericenter": 351.227,
        "meta_mean_anomaly": 8.8769,
        "meta_ephemeris_type": 0,
        "meta_classification_type": "U",
        "meta_norad_cat_id": 43057,
        "meta_element_set_no": 999,
        "meta_rev_at_epoch": 4995,
        "meta_bstar": 0,
        "meta_mean_motion_dot": 7.3e-07,
        "meta_mean_motion_ddot": 0,
        "tle_line1": "1 43057U 17079C   25355.20690569  .00000073  00000+0  00000+0 0  9998",
        "tle_line2": "2 43057  55.1257 226.4024 0002725 351.2270   8.8769  1.70474014 49955"
      },
      "geometry": {
        "type": "Point",
        "coordinates": [
          106.97096912853705,
          -51.330442741156894
        ]
      }
    },
    {
      "type": "Feature",
      "properties": {
        "norad_id": 43058,
        "name": "GSAT0218 (GALILEO 22)",
        "group": "galileo",
        "lat": 46.90124982227636,
        "lon": -1.7912960913185165,
        "alt_km": 23223.375585561014,
        "timestamp": "2025-12-22T18:58:53.697692+00:00",
        "meta_object_name": "GSAT0218 (GALILEO 22)",
        "meta_object_id": "2017-079D",
        "meta_epoch": "2025-12-22T00:19:29.615808",
        "meta_mean_motion": 1.70473914,
        "meta_eccentricity": 0.00024164,
        "meta_inclination": 55.1256,
        "meta_ra_of_asc_node": 226.3779,
        "meta_arg_of_pericenter": 315.4078,
        "meta_mean_anomaly": 44.6792,
        "meta_ephemeris_type": 0,
        "meta_classification_type": "U",
        "meta_norad_cat_id": 43058,
        "meta_element_set_no": 999,
        "meta_rev_at_epoch": 4999,
        "meta_bstar": 0,
        "meta_mean_motion_dot": 7.3e-07,
        "meta_mean_motion_ddot": 0,
        "tle_line1": "1 43058U 17079D   25356.01353722  .00000073  00000+0  00000+0 0  9996",
        "tle_line2": "2 43058  55.1256 226.3779 0002416 315.4078  44.6792  1.70473914 49992"
      },
      "geometry": {
        "type": "Point",
        "coordinates": [
          -1.7912960913185165,
          46.90124982227636
        ]
      }
    }
  ]
}